OPS 7218 (TRANSIT 16)   
1 02807U 67048A   26087.24892762  .00000113  00000+0  15979-3 0  9993
2 02807  89.6800 350.5671 0020272 165.4480 310.5693 13.50748740897008
OPS 4947 (TRANSIT 17)   
1 02965U 67092A   26087.39403605  .00000106  00000+0  14102-3 0  9996
2 02965  89.2585  16.4047 0045863 290.4443 193.4873 13.53482678885266
OPS 7034 (TRANSIT 18)   
1 03133U 68012A   26087.57271657  .00000118  00000+0  16464-3 0  9993
2 03133  90.0204 273.9088 0072533 222.9161 201.6422 13.51593361583489
NNSS 19 (TRANSIT 19)    
1 04507U 70067A   26087.43685806  .00000140  00000+0  18522-3 0  9994
2 04507  90.0095 234.5975 0171099 347.2857  12.4004 13.51342812736499
NNSS 20 (TRANSIT 20)    
1 06909U 73081A   26087.47733854  .00000240  00000+0  23187-3 0  9996
2 06909  89.8536 253.4408 0156350 120.8631 240.8018 13.71483134818108
TRANSAT                 
1 10457U 77106A   26087.49985535  .00000099  00000+0  14265-3 0  9997
2 10457  89.6416  74.7952 0023605 246.9475 240.7879 13.48960756381693
NOVA 1                  
1 12458U 81044A   26087.52698469  .00000090  00000+0  19089-3 0  9997
2 12458  89.8417  89.8302 0014615 165.1097 313.7622 13.23289761165856
NOVA 3                  
1 15362U 84110A   26087.57269260  .00000116  00000+0  25565-3 0  9994
2 15362  90.1135  81.7217 0032816  40.3793  80.4408 13.23059769   975
OSCAR 30                
1 15935U 85066A   26087.57126935  .00000107  00000+0  17515-3 0  9998
2 15935  90.1524 101.5194 0168930 144.5671 330.1757 13.36098418978667
OSCAR 24                
1 15936U 85066B   26087.56693058  .00000093  00000+0  15017-3 0  9992
2 15936  90.1673  94.1159 0169750 151.0633 323.9708 13.35955776980569
POLAR BEAR              
1 17070U 86088A   26087.53905137  .00000103  00000+0  95234-4 0  9991
2 17070  89.6258 179.5790 0040300 158.7312 212.5394 13.75274293974332
OSCAR 27                
1 18361U 87080A   26087.48776812  .00000093  00000+0  14165-3 0  9999
2 18361  90.3652  83.1670 0101846 281.9893  76.9854 13.44927525889782
OSCAR 29                
1 18362U 87080B   26087.54556212  .00000116  00000+0  18167-3 0  9999
2 18362  90.3661  83.6361 0103739 305.5311 170.5922 13.44467498889310
OSCAR 23                
1 19070U 88033A   26087.57556412  .00000053  00000+0  94465-4 0  9996
2 19070  90.3318  19.7088 0187551 245.9424 291.0050 13.27806095836570
OSCAR 32                
1 19071U 88033B   26087.53917613  .00000054  00000+0  95885-4 0  9995
2 19071  90.3322  19.8450 0186094 232.6913 303.7437 13.27970188836695
NOVA 2                  
1 19223U 88052A   26087.50836507  .00000080  00000+0  16833-3 0  9998
2 19223  89.9796  78.0840 0032354  82.4895  35.4130 13.22950171823467
OSCAR 25                
1 19419U 88074A   26087.59381508  .00000091  00000+0  14265-3 0  9993
2 19419  90.0445  20.6213 0094620 305.2010 229.1729 13.42645677840609
