[{"OBJECT_NAME":"OPS 7218 (TRANSIT 16)","OBJECT_ID":"1967-048A","EPOCH":"2026-03-28T05:58:27.346368","MEAN_MOTION":13.5074874,"ECCENTRICITY":0.0020272,"INCLINATION":89.68,"RA_OF_ASC_NODE":350.5671,"ARG_OF_PERICENTER":165.448,"MEAN_ANOMALY":310.5693,"EPHEMERIS_TYPE":0,"CLASSIFICATION_TYPE":"U","NORAD_CAT_ID":2807,"ELEMENT_SET_NO":999,"REV_AT_EPOCH":89700,"BSTAR":0.00015979,"MEAN_MOTION_DOT":1.13e-6,"MEAN_MOTION_DDOT":0},{"OBJECT_NAME":"OPS 4947 (TRANSIT 17)","OBJECT_ID":"1967-092A","EPOCH":"2026-03-28T09:27:24.714720","MEAN_MOTION":13.53482678,"ECCENTRICITY":0.00458636,"INCLINATION":89.2585,"RA_OF_ASC_NODE":16.4047,"ARG_OF_PERICENTER":290.4443,"MEAN_ANOMALY":193.4873,"EPHEMERIS_TYPE":0,"CLASSIFICATION_TYPE":"U","NORAD_CAT_ID":2965,"ELEMENT_SET_NO":999,"REV_AT_EPOCH":88526,"BSTAR":0.00014102009,"MEAN_MOTION_DOT":1.06e-6,"MEAN_MOTION_DDOT":0},{"OBJECT_NAME":"OPS 7034 (TRANSIT 18)","OBJECT_ID":"1968-012A","EPOCH":"2026-03-28T13:44:42.711648","MEAN_MOTION":13.51593361,"ECCENTRICITY":0.00725334,"INCLINATION":90.0204,"RA_OF_ASC_NODE":273.9088,"ARG_OF_PERICENTER":222.9161,"MEAN_ANOMALY":201.6422,"EPHEMERIS_TYPE":0,"CLASSIFICATION_TYPE":"U","NORAD_CAT_ID":3133,"ELEMENT_SET_NO":999,"REV_AT_EPOCH":58348,"BSTAR":0.00016463662,"MEAN_MOTION_DOT":1.18e-6,"MEAN_MOTION_DDOT":0},{"OBJECT_NAME":"NNSS 19 (TRANSIT 19)","OBJECT_ID":"1970-067A","EPOCH":"2026-03-28T10:29:04.536384","MEAN_MOTION":13.51342812,"ECCENTRICITY":0.01710997,"INCLINATION":90.0095,"RA_OF_ASC_NODE":234.5975,"ARG_OF_PERICENTER":347.2857,"MEAN_ANOMALY":12.4004,"EPHEMERIS_TYPE":0,"CLASSIFICATION_TYPE":"U","NORAD_CAT_ID":4507,"ELEMENT_SET_NO":999,"REV_AT_EPOCH":73649,"BSTAR":0.00018521668,"MEAN_MOTION_DOT":1.4e-6,"MEAN_MOTION_DDOT":0},{"OBJECT_NAME":"NNSS 20 (TRANSIT 20)","OBJECT_ID":"1973-081A","EPOCH":"2026-03-28T11:27:22.049856","MEAN_MOTION":13.71483134,"ECCENTRICITY":0.015635,"INCLINATION":89.8536,"RA_OF_ASC_NODE":253.4408,"ARG_OF_PERICENTER":120.8631,"MEAN_ANOMALY":240.8018,"EPHEMERIS_TYPE":0,"CLASSIFICATION_TYPE":"U","NORAD_CAT_ID":6909,"ELEMENT_SET_NO":999,"REV_AT_EPOCH":81810,"BSTAR":0.00023187062,"MEAN_MOTION_DOT":2.4e-6,"MEAN_MOTION_DDOT":0},{"OBJECT_NAME":"TRANSAT","OBJECT_ID":"1977-106A","EPOCH":"2026-03-28T11:59:47.502240","MEAN_MOTION":13.48960756,"ECCENTRICITY":0.00236057,"INCLINATION":89.6416,"RA_OF_ASC_NODE":74.7952,"ARG_OF_PERICENTER":246.9475,"MEAN_ANOMALY":240.7879,"EPHEMERIS_TYPE":0,"CLASSIFICATION_TYPE":"U","NORAD_CAT_ID":10457,"ELEMENT_SET_NO":999,"REV_AT_EPOCH":38169,"BSTAR":0.00014265086,"MEAN_MOTION_DOT":9.9e-7,"MEAN_MOTION_DDOT":0},{"OBJECT_NAME":"NOVA 1","OBJECT_ID":"1981-044A","EPOCH":"2026-03-28T12:38:51.477216","MEAN_MOTION":13.23289761,"ECCENTRICITY":0.00146151,"INCLINATION":89.8417,"RA_OF_ASC_NODE":89.8302,"ARG_OF_PERICENTER":165.1097,"MEAN_ANOMALY":313.7622,"EPHEMERIS_TYPE":0,"CLASSIFICATION_TYPE":"U","NORAD_CAT_ID":12458,"ELEMENT_SET_NO":999,"REV_AT_EPOCH":16585,"BSTAR":0.00019088556,"MEAN_MOTION_DOT":9.0e-7,"MEAN_MOTION_DDOT":0},{"OBJECT_NAME":"NOVA 3","OBJECT_ID":"1984-110A","EPOCH":"2026-03-28T13:44:40.640640","MEAN_MOTION":13.23059769,"ECCENTRICITY":0.00328162,"INCLINATION":90.1135,"RA_OF_ASC_NODE":81.7217,"ARG_OF_PERICENTER":40.3793,"MEAN_ANOMALY":80.4408,"EPHEMERIS_TYPE":0,"CLASSIFICATION_TYPE":"U","NORAD_CAT_ID":15362,"ELEMENT_SET_NO":999,"REV_AT_EPOCH":97,"BSTAR":0.00025565109,"MEAN_MOTION_DOT":1.16e-6,"MEAN_MOTION_DDOT":0},{"OBJECT_NAME":"OSCAR 30","OBJECT_ID":"1985-066A","EPOCH":"2026-03-28T13:42:37.671840","MEAN_MOTION":13.36098418,"ECCENTRICITY":0.01689301,"INCLINATION":90.1524,"RA_OF_ASC_NODE":101.5194,"ARG_OF_PERICENTER":144.5671,"MEAN_ANOMALY":330.1757,"EPHEMERIS_TYPE":0,"CLASSIFICATION_TYPE":"U","NORAD_CAT_ID":15935,"ELEMENT_SET_NO":999,"REV_AT_EPOCH":97866,"BSTAR":0.00017515189,"MEAN_MOTION_DOT":1.07e-6,"MEAN_MOTION_DDOT":0},{"OBJECT_NAME":"OSCAR 24","OBJECT_ID":"1985-066B","EPOCH":"2026-03-28T13:36:22.802112","MEAN_MOTION":13.35955776,"ECCENTRICITY":0.01697501,"INCLINATION":90.1673,"RA_OF_ASC_NODE":94.1159,"ARG_OF_PERICENTER":151.0633,"MEAN_ANOMALY":323.9708,"EPHEMERIS_TYPE":0,"CLASSIFICATION_TYPE":"U","NORAD_CAT_ID":15936,"ELEMENT_SET_NO":999,"REV_AT_EPOCH":98056,"BSTAR":0.00015017063,"MEAN_MOTION_DOT":9.3e-7,"MEAN_MOTION_DDOT":0},{"OBJECT_NAME":"POLAR BEAR","OBJECT_ID":"1986-088A","EPOCH":"2026-03-28T12:56:14.038368","MEAN_MOTION":13.75274293,"ECCENTRICITY":0.00403,"INCLINATION":89.6258,"RA_OF_ASC_NODE":179.579,"ARG_OF_PERICENTER":158.7312,"MEAN_ANOMALY":212.5394,"EPHEMERIS_TYPE":0,"CLASSIFICATION_TYPE":"U","NORAD_CAT_ID":17070,"ELEMENT_SET_NO":999,"REV_AT_EPOCH":97433,"BSTAR":9.5234002e-5,"MEAN_MOTION_DOT":1.03e-6,"MEAN_MOTION_DDOT":0},{"OBJECT_NAME":"OSCAR 27","OBJECT_ID":"1987-080A","EPOCH":"2026-03-28T11:42:23.165568","MEAN_MOTION":13.44927525,"ECCENTRICITY":0.01018467,"INCLINATION":90.3652,"RA_OF_ASC_NODE":83.167,"ARG_OF_PERICENTER":281.9893,"MEAN_ANOMALY":76.9854,"EPHEMERIS_TYPE":0,"CLASSIFICATION_TYPE":"U","NORAD_CAT_ID":18361,"ELEMENT_SET_NO":999,"REV_AT_EPOCH":88978,"BSTAR":0.00014164568,"MEAN_MOTION_DOT":9.3e-7,"MEAN_MOTION_DDOT":0},{"OBJECT_NAME":"OSCAR 29","OBJECT_ID":"1987-080B","EPOCH":"2026-03-28T13:05:36.567168","MEAN_MOTION":13.44467498,"ECCENTRICITY":0.01037391,"INCLINATION":90.3661,"RA_OF_ASC_NODE":83.6361,"ARG_OF_PERICENTER":305.5311,"MEAN_ANOMALY":170.5922,"EPHEMERIS_TYPE":0,"CLASSIFICATION_TYPE":"U","NORAD_CAT_ID":18362,"ELEMENT_SET_NO":999,"REV_AT_EPOCH":88931,"BSTAR":0.00018166739,"MEAN_MOTION_DOT":1.16e-6,"MEAN_MOTION_DDOT":0},{"OBJECT_NAME":"OSCAR 23","OBJECT_ID":"1988-033A","EPOCH":"2026-03-28T13:48:48.739968","MEAN_MOTION":13.27806095,"ECCENTRICITY":0.01875514,"INCLINATION":90.3318,"RA_OF_ASC_NODE":19.7088,"ARG_OF_PERICENTER":245.9424,"MEAN_ANOMALY":291.005,"EPHEMERIS_TYPE":0,"CLASSIFICATION_TYPE":"U","NORAD_CAT_ID":19070,"ELEMENT_SET_NO":999,"REV_AT_EPOCH":83657,"BSTAR":9.4465158e-5,"MEAN_MOTION_DOT":5.3e-7,"MEAN_MOTION_DDOT":0},{"OBJECT_NAME":"OSCAR 32","OBJECT_ID":"1988-033B","EPOCH":"2026-03-28T12:56:24.817632","MEAN_MOTION":13.27970188,"ECCENTRICITY":0.01860946,"INCLINATION":90.3322,"RA_OF_ASC_NODE":19.845,"ARG_OF_PERICENTER":232.6913,"MEAN_ANOMALY":303.7437,"EPHEMERIS_TYPE":0,"CLASSIFICATION_TYPE":"U","NORAD_CAT_ID":19071,"ELEMENT_SET_NO":999,"REV_AT_EPOCH":83669,"BSTAR":9.5884858e-5,"MEAN_MOTION_DOT":5.4e-7,"MEAN_MOTION_DDOT":0},{"OBJECT_NAME":"NOVA 2","OBJECT_ID":"1988-052A","EPOCH":"2026-03-28T12:12:02.742048","MEAN_MOTION":13.22950171,"ECCENTRICITY":0.00323546,"INCLINATION":89.9796,"RA_OF_ASC_NODE":78.084,"ARG_OF_PERICENTER":82.4895,"MEAN_ANOMALY":35.413,"EPHEMERIS_TYPE":0,"CLASSIFICATION_TYPE":"U","NORAD_CAT_ID":19223,"ELEMENT_SET_NO":999,"REV_AT_EPOCH":82346,"BSTAR":0.00016833169,"MEAN_MOTION_DOT":8.0e-7,"MEAN_MOTION_DDOT":0},{"OBJECT_NAME":"OSCAR 25","OBJECT_ID":"1988-074A","EPOCH":"2026-03-28T14:15:05.622912","MEAN_MOTION":13.42645677,"ECCENTRICITY":0.00946201,"INCLINATION":90.0445,"RA_OF_ASC_NODE":20.6213,"ARG_OF_PERICENTER":305.201,"MEAN_ANOMALY":229.1729,"EPHEMERIS_TYPE":0,"CLASSIFICATION_TYPE":"U","NORAD_CAT_ID":19419,"ELEMENT_SET_NO":999,"REV_AT_EPOCH":84060,"BSTAR":0.00014264852,"MEAN_MOTION_DOT":9.1e-7,"MEAN_MOTION_DDOT":0}]
